     2.10           G: GLONASS NAV DATA                     RINEX VERSION / TYPE
teqc  2015Jun23                         20220523 01:25:41UTCPGM / RUN BY / DATE
Linux 2.4.21-27.ELsmp|Opteron|gcc -static|Linux x86_64|=+   COMMENT
  2022     5    12   -4.656612873077D-10                    CORR TO SYSTEM TIME
                                                            END OF HEADER
11 22  5 13 21 45  0.0 3.907922655344D-05-9.094947017729D-13 7.740000000000D+04
    1.517854394531D+04-5.235204696655D-01 3.725290298462D-09 0.000000000000D+00
    1.942743115234D+04-7.504844665527D-01-9.313225746155D-10 0.000000000000D+00
    6.586177734375D+03 3.423907279968D+00-1.862645149231D-09 0.000000000000D+00
21 22  5 13 21 45  0.0-3.009960055351D-04-2.728484105319D-12 7.740000000000D+04
   -8.511483398438D+03-2.766977310181D+00-0.000000000000D+00 0.000000000000D+00
    1.178482031250D+04 7.821769714355D-01-9.313225746155D-10 4.000000000000D+00
   -2.097263183594D+04 1.560894012451D+00 1.862645149231D-09 0.000000000000D+00
 7 22  5 13 22 15  0.0 3.505777567625D-05 0.000000000000D+00 7.920000000000D+04
   -5.816528320312D+03 2.513828277588D-01-0.000000000000D+00 0.000000000000D+00
    2.433875927734D+04-6.327457427979D-01-1.862645149231D-09 5.000000000000D+00
   -4.783522460938D+03-3.496764183044D+00 0.000000000000D+00 0.000000000000D+00
 8 22  5 13 22 15  0.0-6.508827209473D-05 0.000000000000D+00 7.920000000000D+04
    2.268426757812D+03-8.341407775879D-02 0.000000000000D+00 0.000000000000D+00
    2.263717773438D+04 1.579399108887D+00-2.793967723846D-09 6.000000000000D+00
    1.157526171875D+04-3.090837478638D+00-9.313225746155D-10 0.000000000000D+00
 6 22  5 13 22 15  0.0-4.826579242945D-05-1.818989403546D-12 7.920000000000D+04
   -1.076311962891D+04 3.847064971924D-01-9.313225746155D-10 0.000000000000D+00
    1.314571289062D+04-2.576556205750D+00-9.313225746155D-10-4.000000000000D+00
   -1.902282812500D+04-2.000158309937D+00 2.793967723846D-09 0.000000000000D+00
10 22  5 13 22 15  0.0-8.235964924097D-05-0.000000000000D+00 7.920000000000D+04
   -2.597947265625D+03-2.444532394409D+00-1.862645149231D-09 0.000000000000D+00
    1.158791113281D+04-1.892876625061D+00-9.313225746155D-10-7.000000000000D+00
    2.255826367188D+04 6.970729827881D-01-1.862645149231D-09 0.000000000000D+00
11 22  5 13 22 15  0.0 3.907829523087D-05-9.094947017729D-13 7.920000000000D+04
    1.357678710938D+04-1.264397621155D+00 1.862645149231D-09 0.000000000000D+00
    1.768572998047D+04-1.142414093018D+00-1.862645149231D-09 0.000000000000D+00
    1.241535058594D+04 3.010960578918D+00-1.862645149231D-09 0.000000000000D+00
21 22  5 13 22 15  0.0-3.010006621480D-04-2.728484105319D-12 7.920000000000D+04
   -1.297991992188D+04-2.162824630737D+00-1.862645149231D-09 0.000000000000D+00
    1.343128515625D+04 1.011483192444D+00-9.313225746155D-10 4.000000000000D+00
   -1.738960449219D+04 2.394415855408D+00 1.862645149231D-09 0.000000000000D+00
20 22  5 13 22 15  0.0-7.051881402731D-05-9.094947017729D-13 8.082000000000D+04
   -2.411806347656D+04 1.736316680908D-01-4.656612873077D-09 0.000000000000D+00
    8.202238769531D+03 2.091732025146D-01-9.313225746155D-10 2.000000000000D+00
    6.857109375000D+02 3.616064071655D+00 9.313225746155D-10 0.000000000000D+00
 7 22  5 13 22 45  0.0 3.505777567625D-05-0.000000000000D+00 8.100000000000D+04
   -5.409911132812D+03 1.606359481812D-01-9.313225746155D-10 0.000000000000D+00
    2.241732177734D+04-1.487495422363D+00-1.862645149231D-09 5.000000000000D+00
   -1.081033984375D+04-3.155978202820D+00 9.313225746155D-10 0.000000000000D+00
 8 22  5 13 22 45  0.0-6.508827209473D-05-0.000000000000D+00 8.100000000000D+04
    2.361612792969D+03 1.506586074829D-01-0.000000000000D+00 0.000000000000D+00
    2.476752246094D+04 7.650909423828D-01-2.793967723846D-09 6.000000000000D+00
    5.636684570312D+03-3.464900016785D+00-0.000000000000D+00 0.000000000000D+00
 6 22  5 13 22 45  0.0-4.826951771975D-05-1.818989403546D-12 8.100000000000D+04
   -1.039661718750D+04 2.300262451172D-03-9.313225746155D-10 0.000000000000D+00
    8.095540039062D+03-2.989542007446D+00-0.000000000000D+00-4.000000000000D+00
   -2.184112109375D+04-1.111004829407D+00 2.793967723846D-09 0.000000000000D+00
11 22  5 13 22 45  0.0 3.907643258572D-05-9.094947017729D-13 8.100000000000D+04
    1.063143945312D+04-1.997292518616D+00 0.000000000000D+00 0.000000000000D+00
    1.547397656250D+04-1.270494461060D+00-1.862645149231D-09 0.000000000000D+00
    1.728583056641D+04 2.365608215332D+00-2.793967723846D-09 0.000000000000D+00
20 22  5 13 22 45  0.0-7.052067667246D-05-9.094947017729D-13 8.100000000000D+04
   -2.305978466797D+04 9.771795272827D-01-5.587935447693D-09 0.000000000000D+00
    8.220031738281D+03-2.247610092163D-01-0.000000000000D+00 2.000000000000D+00
    7.083696777344D+03 3.446516036987D+00 0.000000000000D+00 0.000000000000D+00
21 22  5 13 22 45  0.0-3.010062500834D-04-2.728484105319D-12 8.100000000000D+04
   -1.620152001953D+04-1.399202346802D+00-2.793967723846D-09 0.000000000000D+00
    1.528026562500D+04 9.990501403809D-01-9.313225746155D-10 4.000000000000D+00
   -1.246396875000D+04 3.043025970459D+00 1.862645149231D-09 0.000000000000D+00
 1 22  5 13 22 45  0.0 8.672475814819D-06 0.000000000000D+00 8.127000000000D+04
    9.256666992188D+03 1.162576675415D-01 0.000000000000D+00 0.000000000000D+00
    1.445278076172D+04 2.581599235535D+00-1.862645149231D-09 1.000000000000D+00
    1.888466210938D+04-2.031819343567D+00-2.793967723846D-09 0.000000000000D+00
 7 22  5 13 23 15  0.0 3.505777567625D-05-0.000000000000D+00 8.280000000000D+04
   -5.368964843750D+03-1.466112136841D-01-9.313225746155D-10 0.000000000000D+00
    1.906975097656D+04-2.199682235718D+00-9.313225746155D-10 5.000000000000D+00
   -1.599737500000D+04-2.569731712341D+00 1.862645149231D-09 0.000000000000D+00
 8 22  5 13 23 15  0.0-6.508827209473D-05-0.000000000000D+00 8.280000000000D+04
    2.669037109375D+03 1.499423980713D-01-9.313225746155D-10 0.000000000000D+00
    2.534373095703D+04-1.284132003784D-01-1.862645149231D-09 6.000000000000D+00
   -7.375117187500D+02-3.571545600891D+00 0.000000000000D+00 0.000000000000D+00
 1 22  5 13 23 15  0.0 8.673407137394D-06 0.000000000000D+00 8.280000000000D+04
    9.747029296875D+03 3.982133865356D-01-0.000000000000D+00 0.000000000000D+00
    1.856515869141D+04 1.952255249023D+00-1.862645149231D-09 1.000000000000D+00
    1.454547314453D+04-2.758237838745D+00-1.862645149231D-09 0.000000000000D+00
11 22  5 13 23 15  0.0 3.907550126314D-05-9.094947017729D-13 8.280000000000D+04
    6.459256347656D+03-2.609507560730D+00-9.313225746155D-10 0.000000000000D+00
    1.326554101562D+04-1.144058227539D+00-9.313225746155D-10 0.000000000000D+00
    2.082171093750D+04 1.537678718567D+00-2.793967723846D-09 0.000000000000D+00
21 22  5 13 23 15  0.0-3.010109066963D-04-2.728484105319D-12 8.280000000000D+04
   -1.798937011719D+04-5.895709991455D-01-3.725290298462D-09 0.000000000000D+00
    1.686600585938D+04 7.184391021729D-01-0.000000000000D+00 4.000000000000D+00
   -6.576027343750D+03 3.456715583801D+00 1.862645149231D-09 0.000000000000D+00
22 22  5 13 23 15  0.0-1.829797402024D-04-1.818989403546D-12 8.283000000000D+04
   -5.974098144531D+03-2.110136032104D+00-9.313225746155D-10 0.000000000000D+00
    1.510191455078D+04 1.680688858032D+00-9.313225746155D-10-3.000000000000D+00
   -1.965171240234D+04 1.944077491760D+00 1.862645149231D-09 0.000000000000D+00
20 22  5 13 23 15  0.0-7.052253931761D-05-9.094947017729D-13 8.364000000000D+04
   -2.071917089844D+04 1.583615303040D+00-5.587935447693D-09 0.000000000000D+00
    7.289008300781D+03-8.310489654541D-01 0.000000000000D+00 2.000000000000D+00
    1.293248291016D+04 3.009858131409D+00-0.000000000000D+00 0.000000000000D+00
 7 22  5 13 23 45  0.0 3.505777567625D-05-0.000000000000D+00 8.460000000000D+04
   -6.027127441406D+03-6.019124984741D-01-9.313225746155D-10 0.000000000000D+00
    1.463998828125D+04-2.677234649658D+00-0.000000000000D+00 5.000000000000D+00
   -1.994110839844D+04-1.783574104309D+00 2.793967723846D-09 0.000000000000D+00
 8 22  5 13 23 45  0.0-6.508920341730D-05-0.000000000000D+00 8.460000000000D+04
    2.756341308594D+03-9.102535247803D-02-9.313225746155D-10 0.000000000000D+00
    2.432801269531D+04-9.841661453247D-01-1.862645149231D-09 6.000000000000D+00
   -7.054434082031D+03-3.401511192322D+00 9.313225746155D-10 0.000000000000D+00
 1 22  5 13 23 45  0.0 8.674338459969D-06 0.000000000000D+00 8.460000000000D+04
    1.056223291016D+04 4.681348800659D-01-9.313225746155D-10 0.000000000000D+00
    2.138161767578D+04 1.158253669739D+00-1.862645149231D-09 1.000000000000D+00
    9.083106933594D+03-3.271705627441D+00-9.313225746155D-10 0.000000000000D+00
11 22  5 13 23 45  0.0 3.907363861799D-05-9.094947017729D-13 8.460000000000D+04
    1.368620117188D+03-3.003777503967D+00-1.862645149231D-09 0.000000000000D+00
    1.147730371094D+04-8.155431747437D-01-0.000000000000D+00 0.000000000000D+00
    2.275003857422D+04 5.909986495972D-01-1.862645149231D-09 0.000000000000D+00
21 22  5 13 23 45  0.0-3.010164946318D-04-2.728484105319D-12 8.460000000000D+04
   -1.836691943359D+04 1.490125656128D-01-4.656612873077D-09 0.000000000000D+00
    1.771697705078D+04 1.898708343506D-01 0.000000000000D+00 4.000000000000D+00
   -1.803305664062D+02 3.603531837463D+00 9.313225746155D-10 0.000000000000D+00
22 22  5 13 23 45  0.0-1.829843968153D-04-2.728484105319D-12 8.460000000000D+04
   -9.160340332031D+03-1.416278839111D+00-2.793967723846D-09 0.000000000000D+00
    1.808349511719D+04 1.584691047668D+00-0.000000000000D+00-3.000000000000D+00
   -1.543634228516D+04 2.709411621094D+00 1.862645149231D-09 0.000000000000D+00
